STARLINK-36937          
1 68113U 26044N   26089.58336806 -.01977794  00000+0 -18706-1 0  9997
2 68113  97.2844  50.7676 0001923 106.0487 127.0307 15.69956813  4712
STARLINK-36229          
1 68114U 26044P   26088.33352414  .00106424  00000+0  70574-3 0  9997
2 68114  97.2847  49.4591 0002103  73.2895 286.8601 15.75181785  4576
STARLINK-36392          
1 68115U 26044Q   26089.58336806 -.01972598  00000+0 -20873-1 0  9994
2 68115  97.2848  50.7627 0001960 104.1209 119.5431 15.67225339  4765
STARLINK-36805          
1 68116U 26044R   26089.58336806 -.01973772  00000+0 -19755-1 0  9997
2 68116  97.2844  50.7673 0001939 106.0119 128.1197 15.68585316  4760
STARLINK-36844          
1 68117U 26044S   26089.34653385  .01001575  00000+0  57180-2 0  9992
2 68117  97.2843  50.5303 0001911 150.5878 209.5496 15.76575994  4737
STARLINK-36789          
1 68118U 26044T   26089.58336806 -.01979009  00000+0 -17553-1 0  9992
2 68118  97.2845  50.7768 0001746 104.6702 152.2613 15.71489569  4719
STARLINK-36850          
1 68119U 26044U   26089.47395605  .00358278  00000+0  24831-2 0  9997
2 68119  97.2847  50.6631 0007402   5.2756 354.8585 15.73413650  4752
STARLINK-36868          
1 68120U 26044V   26089.15398505  .00742174  00000+0  44302-2 0  9993
2 68120  97.2839  50.3332 0002273 138.5040 221.6399 15.75849204  4706
STARLINK-36855          
1 68121U 26044W   26089.58336806 -.01973545  00000+0 -18165-1 0  9995
2 68121  97.2843  50.7821 0001900 104.8910 162.9018 15.70600714  4719
STARLINK-36366          
1 68122U 26044X   26088.32716236  .00224864  00000+0  14649-2 0  9990
2 68122  97.2847  49.4680 0001306  92.0601 268.0814 15.75256832  4576
STARLINK-36922          
1 68123U 26044Y   26089.58336806 -.01980954  00000+0 -17626-1 0  9990
2 68123  97.2843  50.7900 0001765 108.6773 178.0265 15.71417536  4763
STARLINK-36938          
1 68124U 26044Z   26089.58336806 -.00098298  00000+0 -66583-3 0  9999
2 68124  97.2861  50.8450 0001544  83.7565 329.0390 15.75186859  4764
