CCSDS_OMM_VERS = 2.0
CREATION_DATE  = 
ORIGINATOR     = 

OBJECT_NAME    = STARLINK-36937
OBJECT_ID      = 2026-044N
CENTER_NAME    = EARTH
REF_FRAME      = TEME
TIME_SYSTEM    = UTC
MEAN_ELEMENT_THEORY = SGP/SGP4

EPOCH          = 2026-03-30T14:00:03.000384
MEAN_MOTION    = 15.69956813
ECCENTRICITY   = .00019239
INCLINATION    = 97.2844
RA_OF_ASC_NODE = 50.7676
ARG_OF_PERICENTER = 106.0487
MEAN_ANOMALY   = 127.0307

EPHEMERIS_TYPE = 0
CLASSIFICATION_TYPE = U
NORAD_CAT_ID   = 68113
ELEMENT_SET_NO = 999
REV_AT_EPOCH   = 471
BSTAR          = -.18706036E-1
MEAN_MOTION_DOT = -.1977794E-1
MEAN_MOTION_DDOT = 0

CCSDS_OMM_VERS = 2.0
CREATION_DATE  = 
ORIGINATOR     = 

OBJECT_NAME    = STARLINK-36229
OBJECT_ID      = 2026-044P
CENTER_NAME    = EARTH
REF_FRAME      = TEME
TIME_SYSTEM    = UTC
MEAN_ELEMENT_THEORY = SGP/SGP4

EPOCH          = 2026-03-29T08:00:16.485696
MEAN_MOTION    = 15.75181785
ECCENTRICITY   = .00021039
INCLINATION    = 97.2847
RA_OF_ASC_NODE = 49.4591
ARG_OF_PERICENTER = 73.2895
MEAN_ANOMALY   = 286.8601

EPHEMERIS_TYPE = 0
CLASSIFICATION_TYPE = U
NORAD_CAT_ID   = 68114
ELEMENT_SET_NO = 999
REV_AT_EPOCH   = 457
BSTAR          = .70573562E-3
MEAN_MOTION_DOT = .106424E-2
MEAN_MOTION_DDOT = 0

CCSDS_OMM_VERS = 2.0
CREATION_DATE  = 
ORIGINATOR     = 

OBJECT_NAME    = STARLINK-36392
OBJECT_ID      = 2026-044Q
CENTER_NAME    = EARTH
REF_FRAME      = TEME
TIME_SYSTEM    = UTC
MEAN_ELEMENT_THEORY = SGP/SGP4

EPOCH          = 2026-03-30T14:00:03.000384
MEAN_MOTION    = 15.67225339
ECCENTRICITY   = .00019603
INCLINATION    = 97.2848
RA_OF_ASC_NODE = 50.7627
ARG_OF_PERICENTER = 104.1209
MEAN_ANOMALY   = 119.5431

EPHEMERIS_TYPE = 0
CLASSIFICATION_TYPE = U
NORAD_CAT_ID   = 68115
ELEMENT_SET_NO = 999
REV_AT_EPOCH   = 476
BSTAR          = -.20873488E-1
MEAN_MOTION_DOT = -.1972598E-1
MEAN_MOTION_DDOT = 0

CCSDS_OMM_VERS = 2.0
CREATION_DATE  = 
ORIGINATOR     = 

OBJECT_NAME    = STARLINK-36805
OBJECT_ID      = 2026-044R
CENTER_NAME    = EARTH
REF_FRAME      = TEME
TIME_SYSTEM    = UTC
MEAN_ELEMENT_THEORY = SGP/SGP4

EPOCH          = 2026-03-30T14:00:03.000384
MEAN_MOTION    = 15.68585316
ECCENTRICITY   = .00019398
INCLINATION    = 97.2844
RA_OF_ASC_NODE = 50.7673
ARG_OF_PERICENTER = 106.0119
MEAN_ANOMALY   = 128.1197

EPHEMERIS_TYPE = 0
CLASSIFICATION_TYPE = U
NORAD_CAT_ID   = 68116
ELEMENT_SET_NO = 999
REV_AT_EPOCH   = 476
BSTAR          = -.19755308E-1
MEAN_MOTION_DOT = -.1973772E-1
MEAN_MOTION_DDOT = 0

CCSDS_OMM_VERS = 2.0
CREATION_DATE  = 
ORIGINATOR     = 

OBJECT_NAME    = STARLINK-36844
OBJECT_ID      = 2026-044S
CENTER_NAME    = EARTH
REF_FRAME      = TEME
TIME_SYSTEM    = UTC
MEAN_ELEMENT_THEORY = SGP/SGP4

EPOCH          = 2026-03-30T08:19:00.524640
MEAN_MOTION    = 15.76575994
ECCENTRICITY   = .00019114
INCLINATION    = 97.2843
RA_OF_ASC_NODE = 50.5303
ARG_OF_PERICENTER = 150.5878
MEAN_ANOMALY   = 209.5496

EPHEMERIS_TYPE = 0
CLASSIFICATION_TYPE = U
NORAD_CAT_ID   = 68117
ELEMENT_SET_NO = 999
REV_AT_EPOCH   = 473
BSTAR          = .57179854E-2
MEAN_MOTION_DOT = .1001575E-1
MEAN_MOTION_DDOT = 0

CCSDS_OMM_VERS = 2.0
CREATION_DATE  = 
ORIGINATOR     = 

OBJECT_NAME    = STARLINK-36789
OBJECT_ID      = 2026-044T
CENTER_NAME    = EARTH
REF_FRAME      = TEME
TIME_SYSTEM    = UTC
MEAN_ELEMENT_THEORY = SGP/SGP4

EPOCH          = 2026-03-30T14:00:03.000384
MEAN_MOTION    = 15.71489569
ECCENTRICITY   = .00017467
INCLINATION    = 97.2845
RA_OF_ASC_NODE = 50.7768
ARG_OF_PERICENTER = 104.6702
MEAN_ANOMALY   = 152.2613

EPHEMERIS_TYPE = 0
CLASSIFICATION_TYPE = U
NORAD_CAT_ID   = 68118
ELEMENT_SET_NO = 999
REV_AT_EPOCH   = 471
BSTAR          = -.1755309E-1
MEAN_MOTION_DOT = -.1979009E-1
MEAN_MOTION_DDOT = 0

CCSDS_OMM_VERS = 2.0
CREATION_DATE  = 
ORIGINATOR     = 

OBJECT_NAME    = STARLINK-36850
OBJECT_ID      = 2026-044U
CENTER_NAME    = EARTH
REF_FRAME      = TEME
TIME_SYSTEM    = UTC
MEAN_ELEMENT_THEORY = SGP/SGP4

EPOCH          = 2026-03-30T11:22:29.802720
MEAN_MOTION    = 15.73413650
ECCENTRICITY   = .00074022
INCLINATION    = 97.2847
RA_OF_ASC_NODE = 50.6631
ARG_OF_PERICENTER = 5.2756
MEAN_ANOMALY   = 354.8585

EPHEMERIS_TYPE = 0
CLASSIFICATION_TYPE = U
NORAD_CAT_ID   = 68119
ELEMENT_SET_NO = 999
REV_AT_EPOCH   = 475
BSTAR          = .24831346E-2
MEAN_MOTION_DOT = .358278E-2
MEAN_MOTION_DDOT = 0

CCSDS_OMM_VERS = 2.0
CREATION_DATE  = 
ORIGINATOR     = 

OBJECT_NAME    = STARLINK-36868
OBJECT_ID      = 2026-044V
CENTER_NAME    = EARTH
REF_FRAME      = TEME
TIME_SYSTEM    = UTC
MEAN_ELEMENT_THEORY = SGP/SGP4

EPOCH          = 2026-03-30T03:41:44.308320
MEAN_MOTION    = 15.75849204
ECCENTRICITY   = .00022732
INCLINATION    = 97.2839
RA_OF_ASC_NODE = 50.3332
ARG_OF_PERICENTER = 138.5040
MEAN_ANOMALY   = 221.6399

EPHEMERIS_TYPE = 0
CLASSIFICATION_TYPE = U
NORAD_CAT_ID   = 68120
ELEMENT_SET_NO = 999
REV_AT_EPOCH   = 470
BSTAR          = .44301837E-2
MEAN_MOTION_DOT = .742174E-2
MEAN_MOTION_DDOT = 0

CCSDS_OMM_VERS = 2.0
CREATION_DATE  = 
ORIGINATOR     = 

OBJECT_NAME    = STARLINK-36855
OBJECT_ID      = 2026-044W
CENTER_NAME    = EARTH
REF_FRAME      = TEME
TIME_SYSTEM    = UTC
MEAN_ELEMENT_THEORY = SGP/SGP4

EPOCH          = 2026-03-30T14:00:03.000384
MEAN_MOTION    = 15.70600714
ECCENTRICITY   = .00019009
INCLINATION    = 97.2843
RA_OF_ASC_NODE = 50.7821
ARG_OF_PERICENTER = 104.8910
MEAN_ANOMALY   = 162.9018

EPHEMERIS_TYPE = 0
CLASSIFICATION_TYPE = U
NORAD_CAT_ID   = 68121
ELEMENT_SET_NO = 999
REV_AT_EPOCH   = 471
BSTAR          = -.181647E-1
MEAN_MOTION_DOT = -.1973545E-1
MEAN_MOTION_DDOT = 0

CCSDS_OMM_VERS = 2.0
CREATION_DATE  = 
ORIGINATOR     = 

OBJECT_NAME    = STARLINK-36366
OBJECT_ID      = 2026-044X
CENTER_NAME    = EARTH
REF_FRAME      = TEME
TIME_SYSTEM    = UTC
MEAN_ELEMENT_THEORY = SGP/SGP4

EPOCH          = 2026-03-29T07:51:06.827904
MEAN_MOTION    = 15.75256832
ECCENTRICITY   = .00013062
INCLINATION    = 97.2847
RA_OF_ASC_NODE = 49.4680
ARG_OF_PERICENTER = 92.0601
MEAN_ANOMALY   = 268.0814

EPHEMERIS_TYPE = 0
CLASSIFICATION_TYPE = U
NORAD_CAT_ID   = 68122
ELEMENT_SET_NO = 999
REV_AT_EPOCH   = 457
BSTAR          = .14648651E-2
MEAN_MOTION_DOT = .224864E-2
MEAN_MOTION_DDOT = 0

CCSDS_OMM_VERS = 2.0
CREATION_DATE  = 
ORIGINATOR     = 

OBJECT_NAME    = STARLINK-36922
OBJECT_ID      = 2026-044Y
CENTER_NAME    = EARTH
REF_FRAME      = TEME
TIME_SYSTEM    = UTC
MEAN_ELEMENT_THEORY = SGP/SGP4

EPOCH          = 2026-03-30T14:00:03.000384
MEAN_MOTION    = 15.71417536
ECCENTRICITY   = .00017656
INCLINATION    = 97.2843
RA_OF_ASC_NODE = 50.7900
ARG_OF_PERICENTER = 108.6773
MEAN_ANOMALY   = 178.0265

EPHEMERIS_TYPE = 0
CLASSIFICATION_TYPE = U
NORAD_CAT_ID   = 68123
ELEMENT_SET_NO = 999
REV_AT_EPOCH   = 476
BSTAR          = -.17626043E-1
MEAN_MOTION_DOT = -.1980954E-1
MEAN_MOTION_DDOT = 0

CCSDS_OMM_VERS = 2.0
CREATION_DATE  = 
ORIGINATOR     = 

OBJECT_NAME    = STARLINK-36938
OBJECT_ID      = 2026-044Z
CENTER_NAME    = EARTH
REF_FRAME      = TEME
TIME_SYSTEM    = UTC
MEAN_ELEMENT_THEORY = SGP/SGP4

EPOCH          = 2026-03-30T14:00:03.000384
MEAN_MOTION    = 15.75186859
ECCENTRICITY   = .00015445
INCLINATION    = 97.2861
RA_OF_ASC_NODE = 50.8450
ARG_OF_PERICENTER = 83.7565
MEAN_ANOMALY   = 329.0390

EPHEMERIS_TYPE = 0
CLASSIFICATION_TYPE = U
NORAD_CAT_ID   = 68124
ELEMENT_SET_NO = 999
REV_AT_EPOCH   = 476
BSTAR          = -.6658291E-3
MEAN_MOTION_DOT = -.98298E-3
MEAN_MOTION_DDOT = 0

